NORAD_CAT_ID,OBJECT_NAME,OBJECT_TYPE,EPOCH,MEAN_MOTION,ECCENTRICITY,INCLINATION,RA_OF_ASC_NODE,ARG_OF_PERICENTER,MEAN_ANOMALY,BSTAR,MEAN_MOTION_DOT,MEAN_MOTION_DDOT,TLE_LINE0,TLE_LINE1,TLE_LINE2,SEMIMAJOR_AXIS,PERIOD,APOGEE,PERIGEE,DECAYED
50180.0,STARLINK-3265,PAYLOAD,2022-06-20 14:57:07,15.08846557,0.0002721,53.2173,225.7241,27.4057,332.7079,8.2228e-05,1.021e-05,0.0,0 STARLINK-3265,1 50180U 21125AA  22171.62300607  .00001021  00000-0  82228-4 0  9992,2 50180  53.2173 225.7241 0002721  27.4057 332.7079 15.08846557 28490,6917.86,95.437,541.6080000000002,537.8430000000002,0.0
50180.0,STARLINK-3265,PAYLOAD,2022-06-21 03:40:13,15.08840652,0.000277,53.2179,223.3446,28.8115,331.3029,1.0533e-06,-2.72e-06,0.0,0 STARLINK-3265,1 50180U 21125AA  22172.15293096 -.00000272  00000-0  10533-5 0  9993,2 50180  53.2179 223.3446 0002770  28.8115 331.3029 15.08840652 28570,6917.878000000002,95.438,541.66,537.827,0.0
50180.0,STARLINK-3265,PAYLOAD,2022-06-21 10:01:45,15.08837303,0.0002771,53.2172,222.1554,30.1364,329.9788,5.748300000000001e-05,6.26e-06,0.0,0 STARLINK-3265,1 50180U 21125AA  22172.41789100  .00000626  00000-0  57483-4 0  9994,2 50180  53.2172 222.1554 0002771  30.1364 329.9788 15.08837303 31740,6917.889,95.438,541.6709999999998,537.837,0.0
50180.0,STARLINK-3265,PAYLOAD,2022-06-22 09:52:32,15.08848235,0.0002839,53.2175,217.6958,30.4733,329.6423,6.3797e-05,7.27e-06,0.0,0 STARLINK-3265,1 50180U 21125AA  22173.41148239  .00000727  00000-0  63797-4 0  9994,2 50180  53.2175 217.6958 0002839  30.4733 329.6423 15.08848235 28765,6917.855,95.437,541.684,537.756,0.0
50180.0,STARLINK-3265,PAYLOAD,2022-06-22 19:24:51,15.08845447,0.0002798,53.2171,215.9121,28.3027,331.8117,-0.00019937,-3.461e-05,0.0,0 STARLINK-3265,1 50180U 21125AA  22173.80893120 -.00003461  00000-0 -19937-3 0  9999,2 50180  53.2171 215.9121 0002798  28.3027 331.8117 15.08845447 28824,6917.864000000001,95.437,541.664,537.793,0.0
50180.0,STARLINK-3265,PAYLOAD,2022-06-23 09:43:19,15.08836147,0.000287,53.2167,213.2352,26.1834,333.9303,1.1065e-05,-1.12e-06,0.0,0 STARLINK-3265,1 50180U 21125AA  22174.40509200 -.00000112  00000-0  11065-4 0  9993,2 50180  53.2167 213.2352 0002870  26.1834 333.9303 15.08836147 32045,6917.892,95.438,541.743,537.7719999999998,0.0
50180.0,STARLINK-3265,PAYLOAD,2022-06-23 19:15:38,15.08838726,0.0002897,53.2167,211.4511,27.2188,332.8956,1.5377000000000002e-05,-4.4e-07,0.0,0 STARLINK-3265,1 50180U 21125AA  22174.80253051 -.00000044  00000-0  15377-4 0  9991,2 50180  53.2167 211.4511 0002897  27.2188 332.8956 15.08838726 32109,6917.884,95.438,541.753,537.745,0.0
50180.0,STARLINK-3265,PAYLOAD,2022-06-24 03:12:34,15.08842908,0.000292,53.2166,209.9639,27.1569,332.9576,-1.901e-05,-5.91e-06,0.0,0 STARLINK-3265,1 50180U 21125AA  22175.13372919 -.00000591  00000-0 -19010-4 0  9999,2 50180  53.2166 209.9639 0002920  27.1569 332.9576 15.08842908 29023,6917.871999999999,95.437,541.757,537.716,0.0
50180.0,STARLINK-3265,PAYLOAD,2022-06-24 09:34:06,15.08844285,0.0002932,53.2168,208.7746,27.6713,332.4435,-5.8027e-06,-3.81e-06,0.0,0 STARLINK-3265,1 50180U 21125AA  22175.39868737 -.00000381  00000-0 -58027-5 0  9994,2 50180  53.2168 208.7746 0002932  27.6713 332.4435 15.08844285 32191,6917.8669999999975,95.437,541.761,537.7040000000002,0.0
50180.0,STARLINK-3265,PAYLOAD,2022-06-24 19:06:25,15.0884032,0.0002955,53.2168,206.9905,28.3714,331.7439,6.3829e-05,7.27e-06,0.0,0 STARLINK-3265,1 50180U 21125AA  22175.79612707  .00000727  00000-0  63829-4 0  9999,2 50180  53.2168 206.9905 0002955  28.3714 331.7439 15.08840320 32251,6917.879,95.438,541.789,537.7,0.0
50180.0,STARLINK-3265,PAYLOAD,2022-06-25 11:00:16,15.08840066,0.0002931,53.2172,204.0169,30.1287,329.9873,5.526e-05,5.91e-06,0.0,0 STARLINK-3265,1 50180U 21125AA  22176.45852717  .00000591  00000-0  55260-4 0  9999,2 50180  53.2172 204.0169 0002931  30.1287 329.9873 15.08840066 29228,6917.88,95.438,541.773,537.7180000000002,0.0
50180.0,STARLINK-3265,PAYLOAD,2022-06-25 18:57:13,15.08830533,0.0002947,53.2171,202.5301,30.8796,329.2369,-4.7845e-05,-1.05e-05,0.0,0 STARLINK-3265,1 50180U 21125AA  22176.78973719 -.00001050  00000-0 -47845-4 0  9994,2 50180  53.2171 202.5301 0002947  30.8796 329.2369 15.08830533 29273,6917.909000000002,95.438,541.813,537.736,0.0
50180.0,STARLINK-3265,PAYLOAD,2022-06-26 07:40:18,15.08834293,0.0002946,53.2172,200.1512,31.5111,328.6057,-1.7847e-05,-5.73e-06,0.0,0 STARLINK-3265,1 50180U 21125AA  22177.31965579 -.00000573  00000-0 -17847-4 0  9997,2 50180  53.2172 200.1512 0002946  31.5111 328.6057 15.08834293 32481,6917.898,95.438,541.8009999999998,537.725,0.0
50180.0,STARLINK-3265,PAYLOAD,2022-06-27 01:09:32,15.08840548,0.0003107,53.2172,196.8799,34.9245,325.195,-8.2245e-05,-1.598e-05,0.0,0 STARLINK-3265,1 50180U 21125AA  22178.04829613 -.00001598  00000-0 -82245-4 0  9998,2 50180  53.2172 196.8799 0003107  34.9245 325.1950 15.08840548 29462,6917.879,95.438,541.893,537.594,0.0
50180.0,STARLINK-3265,PAYLOAD,2022-06-27 07:31:05,15.08846355,0.000293,53.2173,195.6908,33.7133,326.4045,-0.00012964,-2.352e-05,0.0,0 STARLINK-3265,1 50180U 21125AA  22178.31325505 -.00002352  00000-0 -12964-3 0  9998,2 50180  53.2173 195.6908 0002930  33.7133 326.4045 15.08846355 32632,6917.861,95.437,541.753,537.6990000000002,0.0
50180.0,STARLINK-3265,PAYLOAD,2022-06-27 18:38:47,15.08832481,0.0003034,53.2173,193.6093,34.0621,326.0565,4.926600000000001e-05,4.95e-06,0.0,0 STARLINK-3265,1 50180U 21125AA  22178.77693792  .00000495  00000-0  49266-4 0  9994,2 50180  53.2173 193.6093 0003034  34.0621 326.0565 15.08832481 32703,6917.903,95.438,541.867,537.669,0.0
50180.0,STARLINK-3265,PAYLOAD,2022-06-28 04:11:06,15.08833682,0.000306,53.2172,191.8254,34.1954,325.9235,6.137800000000001e-05,6.88e-06,0.0,0 STARLINK-3265,1 50180U 21125AA  22179.17437847  .00000688  00000-0  61378-4 0  9998,2 50180  53.2172 191.8254 0003060  34.1954 325.9235 15.08833682 29634,6917.9,95.438,541.882,537.648,0.0
50180.0,STARLINK-3265,PAYLOAD,2022-06-28 10:32:38,15.08835118,0.0003089,53.2172,190.6358,34.4144,325.7048,5.967e-05,6.61e-06,0.0,0 STARLINK-3265,1 50180U 21125AA  22179.43933849  .00000661  00000-0  59670-4 0  9993,2 50180  53.2172 190.6358 0003089  34.4144 325.7048 15.08835118 32800,6917.895,95.438,541.8969999999998,537.623,0.0
50180.0,STARLINK-3265,PAYLOAD,2022-06-29 10:23:25,15.08838642,0.0003161,53.217,186.1756,36.0639,324.0566,4.2709e-05,3.91e-06,0.0,0 STARLINK-3265,1 50180U 21125AA  22180.43293837  .00000391  00000-0  42709-4 0  9996,2 50180  53.2170 186.1756 0003161  36.0639 324.0566 15.08838642 32956,6917.885,95.438,541.936,537.563,0.0
50180.0,STARLINK-3265,PAYLOAD,2022-06-30 10:14:12,15.08841934,0.0003226,53.217,181.7153,37.9606,322.1613,3.6497e-05,2.92e-06,0.0,0 STARLINK-3265,1 50180U 21125AA  22181.42653562  .00000292  00000-0  36497-4 0  9998,2 50180  53.2170 181.7153 0003226  37.9606 322.1613 15.08841934 33102,6917.874,95.437,541.971,537.508,0.0
50180.0,STARLINK-3265,PAYLOAD,2022-06-30 16:35:45,15.08842626,0.0003244,53.217,180.5259,38.4819,321.6404,3.7567e-05,3.09e-06,0.0,0 STARLINK-3265,1 50180U 21125AA  22181.69149457  .00000309  00000-0  37567-4 0  9998,2 50180  53.2170 180.5259 0003244  38.4819 321.6404 15.08842626 33143,6917.871999999999,95.437,541.982,537.493,0.0
50180.0,STARLINK-3265,PAYLOAD,2022-07-01 10:05:00,15.08831322,0.0003281,53.217,177.2551,38.9526,321.1702,-6.9262e-05,-1.391e-05,0.0,0 STARLINK-3265,1 50180U 21125AA  22182.42014425 -.00001391  00000-0 -69262-4 0  9997,2 50180  53.2170 177.2551 0003281  38.9526 321.1702 15.08831322 33251,6917.906999999997,95.438,542.0419999999998,537.502,0.0
50180.0,STARLINK-3265,PAYLOAD,2022-07-01 16:26:33,15.08829544,0.0003294,53.2168,176.0658,39.3169,320.8061,-8.356e-05,-1.618e-05,0.0,0 STARLINK-3265,1 50180U 21125AA  22182.68510684 -.00001618  00000-0 -83560-4 0  9992,2 50180  53.2168 176.0658 0003294  39.3169 320.8061 15.08829544 33296,6917.9119999999975,95.438,542.056,537.499,0.0
50180.0,STARLINK-3265,PAYLOAD,2022-07-02 08:20:24,15.08831875,0.00033,53.2169,173.0921,40.8025,319.3214,-6.7933e-05,-1.3699999999999998e-05,0.0,0 STARLINK-3265,1 50180U 21125AA  22183.34750820 -.00001370  00000-0 -67933-4 0  9995,2 50180  53.2169 173.0921 0003300  40.8025 319.3214 15.08831875 33397,6917.905,95.438,542.053,537.487,0.0
50180.0,STARLINK-3265,PAYLOAD,2022-07-02 22:38:52,15.08834028,0.000334,53.217,170.4157,42.1445,317.9804,-4.1057e-05,-9.42e-06,0.0,0 STARLINK-3265,1 50180U 21125AA  22183.94366866 -.00000942  00000-0 -41057-4 0  9997,2 50180  53.2170 170.4157 0003340  42.1445 317.9804 15.08834028 30351,6917.899,95.438,542.0740000000002,537.453,0.0
50180.0,STARLINK-3265,PAYLOAD,2022-07-03 08:11:11,15.08842956,0.0003421,53.2172,168.6315,41.5194,318.6058,-0.00012805,-2.327e-05,0.0,0 STARLINK-3265,1 50180U 21125AA  22184.34110781 -.00002327  00000-0 -12805-3 0  9992,2 50180  53.2172 168.6315 0003421  41.5194 318.6058 15.08842956 33544,6917.871,95.437,542.1030000000002,537.37,0.0
50180.0,STARLINK-3265,PAYLOAD,2022-07-03 16:08:07,15.08829474,0.0003379,53.2173,167.1448,43.2801,316.8456,7.291100000000001e-05,8.72e-06,0.0,0 STARLINK-3265,1 50180U 21125AA  22184.67231158  .00000872  00000-0  72911-4 0  9996,2 50180  53.2173 167.1448 0003379  43.2801 316.8456 15.08829474 33599,6917.913000000001,95.438,542.115,537.44,0.0
50180.0,STARLINK-3265,PAYLOAD,2022-07-04 04:51:12,15.08831936,0.0003402,53.2173,164.7658,44.53,315.5965,7.7691e-05,9.48e-06,0.0,0 STARLINK-3265,1 50180U 21125AA  22185.20223343  .00000948  00000-0  77691-4 0  9997,2 50180  53.2173 164.7658 0003402  44.5300 315.5965 15.08831936 30549,6917.905,95.438,542.124,537.4169999999998,0.0
50180.0,STARLINK-3265,PAYLOAD,2022-07-04 08:01:59,15.08834221,0.0003443,53.2174,164.171,45.1232,315.004,8.1681e-05,1.011e-05,0.0,0 STARLINK-3265,1 50180U 21125AA  22185.33471261  .00001011  00000-0  81681-4 0  9991,2 50180  53.2174 164.1710 0003443  45.1232 315.0040 15.08834221 33697,6917.898,95.438,542.145,537.381,0.0
